IRIDIUM 8 [+]           
1 24792U 97020A   16162.37041288  .00000160  00000-0  49990-4 0  9993
2 24792  86.3965 114.1466 0002216  86.2246 273.9203 14.34218696999901
IRIDIUM 7 [+]           
1 24793U 97020B   16162.36406376  .00000149  00000-0  46136-4 0  9992
2 24793  86.3969 114.4118 0002269  85.9700 274.1755 14.34219351999906
IRIDIUM 6 [+]           
1 24794U 97020C   16162.42742086  .00000157  00000-0  49110-4 0  9995
2 24794  86.3968 114.3244 0002337  85.9200 274.2263 14.34213922999910
IRIDIUM 5 [+]           
1 24795U 97020D   16162.42117165  .00000206  00000-0  66652-4 0  9995
2 24795  86.3960 114.3570 0002361  82.2159 277.9304 14.34219473999996
IRIDIUM 4 [-]           
1 24796U 97020E   16162.38237667  .00000117  00000-0  34276-4 0  9999
2 24796  86.3962 113.5425 0002169  87.7218  22.9956 14.35083948999988
IRIDIUM 914 [-]         
1 24836U 97030A   16162.44747329  .00000123  00000-0  33749-4 0  9994
2 24836  86.3938 131.2638 0000873 124.4744 235.6537 14.38685850995495
IRIDIUM 12 [+]          
1 24837U 97030B   16162.53411021 -.00000002  00000-0 -77409-5 0  9992
2 24837  86.3961 145.4726 0002196  82.6508  57.3381 14.34216967993679
IRIDIUM 10 [+]          
1 24839U 97030D   16162.45727204 -.00000005  00000-0 -89711-5 0  9990
2 24839  86.3961 145.4866 0002185  83.3473  85.6128 14.34216918993672
IRIDIUM 13 [+]          
1 24840U 97030E   16162.44357940  .00000004  00000-0 -54718-5 0  9994
2 24840  86.3962 145.6246 0002153  78.7094 281.4343 14.34216963993665
IRIDIUM 16 [-]          
1 24841U 97030F   16162.41301528  .00000147  00000-0  43338-4 0  9995
2 24841  86.4037 145.7254 0004363  74.3514 285.8164 14.36630524994209
IRIDIUM 911 [-]         
1 24842U 97030G   16162.43090999  .00000150  00000-0  37234-4 0  9997
2 24842  86.4465 146.7208 0012451 241.5379 118.4569 14.44861296999261
IRIDIUM 15 [+]          
1 24869U 97034A   16162.50409147  .00000005  00000-0 -53900-5 0  9996
2 24869  86.3973 177.1892 0002259  85.8385 274.3068 14.34218378990646
IRIDIUM 17 [-]          
1 24870U 97034B   16162.48319940  .00000127  00000-0  37164-4 0  9993
2 24870  86.3972 175.9105 0002496  52.6500 307.4924 14.35676277990831
IRIDIUM 920 [-]         
1 24871U 97034C   16162.46437140  .00000110  00000-0  28785-4 0  9996
2 24871  86.3978 163.0091 0013701 118.3271 241.9312 14.39405357992878
IRIDIUM 18 [+]          
1 24872U 97034D   16162.46603692  .00000008  00000-0 -42049-5 0  9991
2 24872  86.3976 177.4372 0002376  87.0389 273.1079 14.34218299990637
IRIDIUM 921 [-]         
1 24873U 97034E   16162.50256347  .00001617  00000-0  96187-4 0  9995
2 24873  86.3953 241.4903 0005758 317.6163  42.4629 15.10494036 31975
IRIDIUM 26 [-]          
1 24903U 97043A   16162.22715977  .00000085  00000-0  22835-4 0  9994
2 24903  86.3979  50.5415 0002342  87.7319  25.1075 14.35195954984623
IRIDIUM 25 [+]          
1 24904U 97043B   16162.55385822  .00000189  00000-0  60545-4 0  9998
2 24904  86.3973  50.8136 0002311  86.4547 273.6913 14.34217341984553
IRIDIUM 46 [+]          
1 24905U 97043C   16162.21770080  .00000180  00000-0  57096-4 0  9994
2 24905  86.3981  51.4740 0002234  87.7355 272.4096 14.34217010984514
IRIDIUM 23 [S]          
1 24906U 97043D   16162.23319566  .00000169  00000-0  53228-4 0  9995
2 24906  86.3986  50.9390 0002263  89.1031  23.7111 14.34217038984520
IRIDIUM 22 [+]          
1 24907U 97043E   16162.53482908  .00000181  00000-0  57622-4 0  9996
2 24907  86.3984  51.4472 0002231  85.8142 274.3308 14.34217539984558
DUMMY MASS 1 [-]        
1 24925U 97048A   16161.70734564  .00000098  00000-0  82193-5 0  9996
2 24925  86.3373 215.1040 0004657 284.3168  75.7538 14.85080000 16065
DUMMY MASS 2 [-]        
1 24926U 97048B   16161.68776005  .00000099  00000-0  83405-5 0  9998
2 24926  86.3372 216.1667 0005562 294.0030  66.0611 14.84848534 16151
IRIDIUM 29 [-]          
1 24944U 97051A   16162.27711320  .00000123  00000-0  36652-4 0  9996
2 24944  86.3974  82.4675 0001892  87.2626 272.8786 14.34580710981107
IRIDIUM 32 [+]          
1 24945U 97051B   16162.28454148  .00000213  00000-0  68980-4 0  9999
2 24945  86.3973  82.5981 0002217  86.6992 273.4457 14.34223613981118
IRIDIUM 33 [-]          
1 24946U 97051C   16162.27728228  .00000120  00000-0  36399-4 0  9998
2 24946  86.3889  82.4193 0008866  28.8715 331.2970 14.33493679980758
IRIDIUM 28 [-]          
1 24948U 97051E   16162.31933539  .00000131  00000-0  38576-4 0  9999
2 24948  86.3979  81.8932 0002551  82.8769 277.2717 14.35483142981225
IRIDIUM 30 [+]          
1 24949U 97051F   16162.27819932  .00000213  00000-0  69032-4 0  9997
2 24949  86.3975  82.6907 0002271  87.8020 272.3436 14.34223662981094
IRIDIUM 31 [+]          
1 24950U 97051G   16162.48116347  .00000030  00000-0  37122-5 0  9995
2 24950  86.3974  82.6062 0002159  82.8444 277.2997 14.34223246981136
IRIDIUM 19 [+]          
1 24965U 97056A   16162.53532719  .00000154  00000-0  47960-4 0  9994
2 24965  86.3967 114.0861 0002243  85.8764 274.2688 14.34218306979281
IRIDIUM 35 [+]          
1 24966U 97056B   16162.40846814  .00000159  00000-0  49798-4 0  9991
2 24966  86.3966 114.1359 0002265  85.8739 274.2716 14.34218727979245
IRIDIUM 36 [-]          
1 24967U 97056C   16162.40723204  .00000153  00000-0  46461-4 0  9997
2 24967  86.3975 113.4864 0002139  84.8705 275.2736 14.35532029979520
IRIDIUM 37 [+]          
1 24968U 97056D   16162.38309618  .00000165  00000-0  51972-4 0  9990
2 24968  86.3968 114.3221 0002211  85.6732 274.4716 14.34218821979248
IRIDIUM 34 [+]          
1 24969U 97056E   16162.40215584  .00000161  00000-0  50353-4 0  9990
2 24969  86.3968 114.2511 0002231  84.7362 275.4088 14.34216892979240
IRIDIUM 43 [+]          
1 25039U 97069A   16162.45968220  .00000007  00000-0 -46193-5 0  9998
2 25039  86.3972 177.3633 0002160  85.2122 274.9320 14.34217614973037
IRIDIUM 41 [+]          
1 25040U 97069B   16162.48501674  .00000006  00000-0 -49407-5 0  9999
2 25040  86.3975 177.3156 0002422  87.7585  75.7715 14.34218482973032
IRIDIUM 40 [+]          
1 25041U 97069C   16162.47869144  .00000013  00000-0 -23516-5 0  9999
2 25041  86.3962 177.5413 0001534  70.0559 290.0802 14.34218744973058
IRIDIUM 39 [+]          
1 25042U 97069D   16162.48536634  .00000084  00000-0  23115-4 0  9997
2 25042  86.3973 177.6058 0002366  94.0769 266.0697 14.34203917973039
IRIDIUM 38 [-]          
1 25043U 97069E   16162.46578028  .00000119  00000-0  34188-4 0  9990
2 25043  86.3969 174.9563 0003496  79.5541 280.6049 14.35953030973387
IRIDIUM 42 [-]          
1 25077U 97077A   16162.46947683  .00000110  00000-0  31940-4 0  9997
2 25077  86.3974 177.3328 0002415  87.5433 272.6039 14.34483723968903
IRIDIUM 44 [-]          
1 25078U 97077B   16162.44295035  .00000137  00000-0  38702-4 0  9995
2 25078  86.3967 167.8436 0003749  71.6302 288.5304 14.38037324970203
IRIDIUM 45 [+]          
1 25104U 97082A   16162.54458684  .00000225  00000-0  73384-4 0  9996
2 25104  86.3972  82.6210 0003543  81.0721 279.0876 14.34224190967104
IRIDIUM 24 [-]          
1 25105U 97082B   16162.16358881  .00000199  00000-0  56942-4 0  9994
2 25105  86.3935  32.5536 0013380 123.7357 236.5119 14.39779147969324
IRIDIUM 47 [+]          
1 25106U 97082C   16162.43335004  .00000189  00000-0  60402-4 0  9992
2 25106  86.3970  50.7469 0002241  89.8164 270.3289 14.34217433967088
IRIDIUM 49 [+]          
1 25108U 97082E   16162.53205037  .00000177  00000-0  56203-4 0  9998
2 25108  86.3972  50.7987 0002283  87.4805 356.4921 14.34217125967109
IRIDIUM 52 [+]          
1 25169U 98010A   16162.47529535 -.00000006  00000-0 -90439-5 0  9995
2 25169  86.3965 145.7755 0002186  82.2214 277.9230 14.34217037958501
IRIDIUM 56 [+]          
1 25170U 98010B   16162.46894945  .00000055  00000-0  12599-4 0  9998
2 25170  86.3955 145.8777 0002619  88.4833 271.6663 14.34217101958483
IRIDIUM 54 [+]          
1 25171U 98010C   16162.43089579 -.00000000  00000-0 -71372-5 0  9992
2 25171  86.3966 145.8131 0002166  82.1338 278.0103 14.34217162958643
IRIDIUM 50 [+]          
1 25172U 98010D   16162.46260983 -.00000002  00000-0 -77202-5 0  9996
2 25172  86.3965 145.7581 0002095  83.6585 276.4849 14.34217018958483
IRIDIUM 53 [+]          
1 25173U 98010E   16162.41186809  .00000000  00000-0 -70288-5 0  9990
2 25173  86.3965 145.7851 0002170  82.2323 277.9119 14.34216971958486
IRIDIUM 51 [S]          
1 25262U 98018A   16162.35775694  .00000169  00000-0  53189-4 0  9991
2 25262  86.3972 114.4461 0002237  89.1286 271.0166 14.34217046957863
IRIDIUM 61 [+]          
1 25263U 98018B   16162.38945294  .00000154  00000-0  48049-4 0  9993
2 25263  86.3968 114.2855 0002251  86.2905 273.8548 14.34218045953574
IRIDIUM 55 [+]          
1 25272U 98019A   16162.32259641  .00000204  00000-0  65812-4 0  9995
2 25272  86.3974  82.4928 0002259  85.9842 274.1611 14.34223379952763
IRIDIUM 57 [+]          
1 25273U 98019B   16162.50650997  .00000101  00000-0  29005-4 0  9995
2 25273  86.3978  82.7073 0002124  87.9095 272.2344 14.34222082952790
IRIDIUM 58 [+]          
1 25274U 98019C   16162.30357316  .00000210  00000-0  67767-4 0  9991
2 25274  86.3980  82.9786 0002273  87.9316 272.2140 14.34222653952763
IRIDIUM 59 [+]          
1 25275U 98019D   16162.51921410  .00000189  00000-0  60482-4 0  9999
2 25275  86.3975  82.7619 0002134  86.3498 273.7942 14.34223536952791
IRIDIUM 60 [+]          
1 25276U 98019E   16162.45579304  .00000214  00000-0  69465-4 0  9993
2 25276  86.3972  82.4223 0002251  85.4990 274.6463 14.34223520952784
IRIDIUM 62 [+]          
1 25285U 98021A   16162.55678156  .00000113  00000-0  33240-4 0  9992
2 25285  86.3962  19.2757 0002245  90.9898 269.1555 14.34219224951757
IRIDIUM 63 [-]          
1 25286U 98021B   16162.53000880  .00000084  00000-0  22781-4 0  9999
2 25286  86.3990  19.6707 0001974  92.3321 288.0253 14.34595866951768
